OSCAR 7 (AO-7)          
1 07530U 74089B   26156.25337362 -.00000049  00000+0 -14506-4 0  9998
2 07530 101.9901 169.3754 0012431 152.3188 270.3033 12.53697882359020
PHASE 3B (AO-10)        
1 14129U 83058B   26153.31656221  .00000070  00000+0  00000+0 0  9999
2 14129  25.9022 222.0290 6015956 111.5768 320.3605  2.05871181295184
UOSAT 2 (UO-11)         
1 14781U 84021B   26156.13961409  .00001448  00000+0  15307-3 0  9994
2 14781  97.8051 121.8497 0006565 214.8285 145.2504 14.90753594255333
LUSAT (LO-19)           
1 20442U 90005G   26156.32126850  .00000125  00000+0  61458-4 0  9998
2 20442  98.8853 177.7996 0010570 238.2188 121.7967 14.34119464900690
EYESAT A (AO-27)        
1 22825U 93061C   26156.04287830  .00000133  00000+0  67637-4 0  9999
2 22825  98.6882 223.4603 0009287 131.4595 228.7387 14.30939060705268
ITAMSAT (IO-26)         
1 22826U 93061D   26156.09581525  .00000110  00000+0  58344-4 0  9993
2 22826  98.6830 223.4296 0009996 116.5147 243.7062 14.31365384705589
RADIO ROSTO (RS15)      
1 23439U 94085A   26156.14295491 -.00000047  00000+0 -11742-3 0  9992
2 23439  64.8186 322.6954 0155585   6.1021 354.1753 11.27583595294544
JAS-2 (FO-29)           
1 24278U 96046B   26156.03787251 -.00000027  00000+0  52727-5 0  9998
2 24278  98.5250   6.5738 0350680 127.8798 235.4612 13.53273637471529
TECHSAT 1B (GO-32)      
1 25397U 98043D   26156.26355749  .00000067  00000+0  49273-4 0  9992
2 25397  99.0065 148.7216 0000383 202.4180 157.6982 14.24425989449639
ISS (ZARYA)             
1 25544U 98067A   26156.06378630  .00007786  00000+0  14618-3 0  9993
2 25544  51.6329   0.1115 0007002 133.6992 226.4578 15.49608794569870
PCSAT (NO-44)           
1 26931U 01043C   26156.07604569  .00000165  00000+0  92638-4 0  9999
2 26931  67.0513 275.5959 0006110 264.1376  95.9029 14.31951716288712
SAUDISAT 1C (SO-50)     
1 27607U 02058C   26156.08480701  .00001044  00000+0  14035-3 0  9999
2 27607  64.5503 166.4291 0075494 264.6787  94.5702 14.83019464262664
CUTE-1 (CO-55)          
1 27844U 03031E   26154.54951729  .00000336  00000+0  16425-3 0  9994
2 27844  98.6736 163.2800 0008690 219.4250 140.6297 14.24327019189732
CUBESAT XI-IV (CO-57)   
1 27848U 03031J   26156.28822976  .00000257  00000+0  13217-3 0  9990
2 27848  98.6767 164.7190 0008404 234.4870 125.5525 14.23614275189688
MOZHAETS 4 (RS22)       
1 27939U 03042A   26156.33950324  .00000757  00000+0  12497-3 0  9992
2 27939  98.3467 340.3636 0010333 311.9138 169.3047 14.73444868213803
CUBESAT XI-V            
1 28895U 05043F   26155.96828465  .00001691  00000+0  27373-3 0  9992
2 28895  98.2974 311.3347 0012930 241.7427 118.2475 14.72598149 99957
CUTE-1.7+APD II (CO-65) 
1 32785U 08021C   26156.24972102  .00004872  00000+0  30922-3 0  9992
2 32785  97.8271 137.4216 0010568  73.6598 286.5791 15.09330786983395
SEEDS II (CO-66)        
1 32791U 08021J   26156.25231518  .00016346  00000+0  52583-3 0  9995
2 32791  97.7518 153.5844 0002782  37.9418 322.2018 15.32323732985463
YUBILEINY (RS30)        
1 32953U 08025A   26156.26818954  .00000021  00000+0  80995-4 0  9997
2 32953  82.5043   2.8559 0019378 340.6101  19.4239 12.43178844818218
KKS-1 (KISEKI)          
1 33499U 09002H   26156.18003534  .00001506  00000+0  19175-3 0  9990
2 33499  98.1193  78.4321 0007319 339.9855  20.1070 14.83091661934418
SWISSCUBE               
1 35932U 09051B   26156.26394345  .00001101  00000+0  22721-3 0  9992
2 35932  98.4043  63.9444 0005430 247.1913 112.8715 14.62457994887415
BEESAT-1                
1 35933U 09051C   26156.26718955  .00000929  00000+0  19630-3 0  9992
2 35933  98.3972  63.6080 0003898 265.1177  94.9579 14.61700495887444
ITUPSAT1                
1 35935U 09051E   26155.69953963  .00000958  00000+0  20796-3 0  9997
2 35935  98.4056  62.2366 0006134 280.9538  79.0971 14.60421767886916
XIWANG-1 (HOPE-1)       
1 36122U 09072B   26156.23602203  .00000105  00000+0  39226-3 0  9990
2 36122 100.4027 110.2597 0006774 261.8152  98.2193 13.16438827791433
O/OREOS (USA 219)       
1 37224U 10062C   26156.14141230  .00002983  00000+0  28734-3 0  9991
2 37224  71.9702 107.6232 0012355  89.4979 270.7607 14.93690973114847
JUGNU                   
1 37839U 11058B   26156.31650772  .00000440  00000+0  90425-4 0  9997
2 37839  19.9622  20.5431 0018505 305.3603 210.9987 14.13773506757344
SRMSAT                  
1 37841U 11058D   26156.27093390  .00000376  00000+0  60553-4 0  9999
2 37841  19.9703 131.5949 0011934  73.4698 332.0288 14.11573089756138
STRAND-1                
1 39090U 13009E   26156.22027919  .00000289  00000+0  11172-3 0  9999
2 39090  98.3919 336.7495 0007388 266.3997  93.6345 14.37155907695346
ZACUBE-1 (TSHEPISOSAT)  
1 39417U 13066B   26156.14240747  .00004989  00000+0  38812-3 0  9993
2 39417  97.8104 118.4142 0039896 290.2475  69.4462 15.01107591678923
GOMX-1                  
1 39430U 13066Q   26156.26939951  .00002321  00000+0  35190-3 0  9997
2 39430  97.6487 357.4837 0130033 115.3714 246.1022 14.69412923668166
